NORAD_CAT_ID,OBJECT_NAME,OBJECT_TYPE,EPOCH,MEAN_MOTION,ECCENTRICITY,INCLINATION,RA_OF_ASC_NODE,ARG_OF_PERICENTER,MEAN_ANOMALY,BSTAR,MEAN_MOTION_DOT,MEAN_MOTION_DDOT,TLE_LINE0,TLE_LINE1,TLE_LINE2,SEMIMAJOR_AXIS,PERIOD,APOGEE,PERIGEE,DECAYED
51111.0,STARLINK-3173,PAYLOAD,2022-02-02 22:00:00,15.78065054,0.0001158,53.2172,200.9173,69.9608,80.2546,-0.0051281,-0.00811345,0.0,0 STARLINK-3173,1 51111U 22005H   22033.91667824 -.00811345  00000-0 -51281-2 0  9994,2 51111  53.2172 200.9173 0001158  69.9608  80.2546 15.78065054  2824,6714.06,91.251,336.7030000000001,335.148,0.0
51111.0,STARLINK-3173,PAYLOAD,2022-02-03 06:00:00,15.77485613,0.000116,53.2177,199.255,54.2437,190.3912,-0.005331,-0.00820766,0.0,0 STARLINK-3173,1 51111U 22005H   22034.25001157 -.00820766  00000-0 -53310-2 0  9995,2 51111  53.2177 199.2550 0001160  54.2437 190.3912 15.77485613  3713,6715.704000000002,91.285,338.348,336.79,0.0
51111.0,STARLINK-3173,PAYLOAD,2022-02-03 14:00:01,15.76901272,0.0001194,53.2177,197.5957,54.8057,283.5465,-0.0054978,-0.0082422,0.0,0 STARLINK-3173,1 51111U 22005H   22034.58334491 -.00824220  00000-0 -54978-2 0  9991,2 51111  53.2177 197.5957 0001194  54.8057 283.5465 15.76901272  2930,6717.363,91.318,340.03,338.426,0.0
51111.0,STARLINK-3173,PAYLOAD,2022-02-03 22:00:01,15.76311529,0.0001094,53.2174,195.9391,60.6042,10.8274,-0.0055933,-0.00817407,0.0,0 STARLINK-3173,1 51111U 22005H   22034.91668981 -.00817407  00000-0 -55933-2 0  9993,2 51111  53.2174 195.9391 0001094  60.6042  10.8274 15.76311529  2994,6719.0390000000025,91.353,341.639,340.1690000000001,0.0
51111.0,STARLINK-3173,PAYLOAD,2022-02-04 06:00:00,15.75724736,0.0001329,53.2175,194.2807,51.9163,111.7603,-0.0057258999999999,-0.00815546,0.0,0 STARLINK-3173,1 51111U 22005H   22035.25001157 -.00815546  00000-0 -57259-2 0  9992,2 51111  53.2175 194.2807 0001329  51.9163 111.7603 15.75724736  3868,6720.706999999999,91.387,343.465,341.67800000000005,0.0
51111.0,STARLINK-3173,PAYLOAD,2022-02-04 14:00:01,15.75011867,0.0001335,53.2187,192.6285,70.0468,185.3674,-0.0046232,-0.0065082,0.0,0 STARLINK-3173,1 51111U 22005H   22035.58335648 -.00650820  00000-0 -46232-2 0  9994,2 51111  53.2187 192.6285 0001335  70.0468 185.3674 15.75011867  3094,6722.734,91.428,345.497,343.702,0.0
51111.0,STARLINK-3173,PAYLOAD,2022-02-04 22:00:00,15.74558764,0.0001077,53.2173,190.9743,59.1052,287.0739,-0.0060968,-0.00824043,0.0,0 STARLINK-3173,1 51111U 22005H   22035.91667824 -.00824043  00000-0 -60968-2 0  9997,2 51111  53.2173 190.9743 0001077  59.1052 287.0739 15.74558764  3159,6724.024,91.454,346.61300000000006,345.165,0.0
51111.0,STARLINK-3173,PAYLOAD,2022-02-05 06:00:00,15.73919694,0.0001513,53.2185,189.3223,34.8264,41.5723,-0.0055973,-0.00743078,0.0,0 STARLINK-3173,1 51111U 22005H   22036.25001157 -.00743078  00000-0 -55973-2 0  9994,2 51111  53.2185 189.3223 0001513  34.8264  41.5723 15.73919694  4022,6725.844,91.491,348.727,346.691,0.0
51111.0,STARLINK-3173,PAYLOAD,2022-02-05 14:00:01,15.73123002,0.0001465,53.2186,187.6722,51.7054,114.2449,0.0008448,0.00119244,0.0,0 STARLINK-3173,1 51111U 22005H   22036.58334491  .00119244  00000-0  84480-3 0  9996,2 51111  53.2186 187.6722 0001465  51.7054 114.2449 15.73123002  4077,6728.115,91.538,350.965,348.994,0.0
51111.0,STARLINK-3173,PAYLOAD,2022-02-05 16:00:00,15.73171504,0.0001351999999999,53.2183,187.2601,56.1753,221.9775,0.00037956,0.0005292,0.0,0 STARLINK-3173,1 51111U 22005H   22036.66667824  .00052920  00000-0  37956-3 0  9997,2 51111  53.2183 187.2601 0001352  56.1753 221.9775 15.73171504  4096,6727.976,91.535,350.751,348.932,0.0
51111.0,STARLINK-3173,PAYLOAD,2022-02-06 19:47:28,15.73237284,0.0002069,53.2234,181.5427,88.8502,271.2755,0.00018357,0.00025261,0.0,0 STARLINK-3173,1 51111U 22005H   22037.82463891  .00025261  00000-0  18357-3 0  9996,2 51111  53.2234 181.5427 0002069  88.8502 271.2755 15.73237284  4270,6727.7890000000025,91.531,351.046,348.26199999999994,0.0
51111.0,STARLINK-3173,PAYLOAD,2022-02-07 14:05:11,15.73254907,0.0001415,53.2221,177.7712,86.5226,273.5956,-3.54e-05,-5.597e-05,0.0,0 STARLINK-3173,1 51111U 22005H   22038.58693950 -.00005597  00000-0 -35400-4 0  9992,2 51111  53.2221 177.7712 0001415  86.5226 273.5956 15.73254907  3281,6727.739000000001,91.53,350.556,348.652,0.0
51111.0,STARLINK-3173,PAYLOAD,2022-02-08 22:06:17,15.73252651,0.0001791,53.2167,171.1703,20.6124,339.4968,0.00035053,0.00048974,0.0,0 STARLINK-3173,1 51111U 22005H   22039.92103324  .00048974  00000-0  35053-3 0  9999,2 51111  53.2167 171.1703 0001791  20.6124 339.4968 15.73252651  4607,6727.745,91.53,350.815,348.405,0.0
51111.0,STARLINK-3173,PAYLOAD,2022-02-09 11:49:36,15.73248149,0.0001719,53.217,168.3408,29.1013,331.0102,0.00026398,0.00036666,0.0,0 STARLINK-3173,1 51111U 22005H   22040.49277956  .00036666  00000-0  26398-3 0  9993,2 51111  53.2170 168.3408 0001719  29.1013 331.0102 15.73248149  4696,6727.7580000000025,91.53,350.779,348.466,0.0
51111.0,STARLINK-3173,PAYLOAD,2022-02-09 14:52:34,15.73212976,0.0002108,53.2164,167.7117,32.8457,327.2694,2.7645e-05,3.262e-05,0.0,0 STARLINK-3173,1 51111U 22005H   22040.61983916  .00003262  00000-0  27645-4 0  9990,2 51111  53.2164 167.7117 0002108  32.8457 327.2694 15.73212976  3607,6727.858,91.532,351.141,348.305,0.0
51111.0,STARLINK-3173,PAYLOAD,2022-02-09 20:00:01,15.73211231,0.0002324,53.2162,166.6573,29.6863,100.3203,-0.00011375,-0.00016564,0.0,0 STARLINK-3173,1 51111U 22005H   22040.83334491 -.00016564  00000-0 -11375-3 0  9995,2 51111  53.2162 166.6573 0002324  29.6863 100.3203 15.73211231  4749,6727.863,91.533,351.292,348.165,0.0
51111.0,STARLINK-3173,PAYLOAD,2022-02-10 13:44:46,15.73227318,0.0001611,53.2163,162.9962,35.6237,324.4890000000001,0.00025244,0.00034997,0.0,0 STARLINK-3173,1 51111U 22005H   22041.57275937  .00034997  00000-0  25244-3 0  9994,2 51111  53.2163 162.9962 0001611  35.6237 324.4890 15.73227318  3755,6727.816999999999,91.532,350.766,348.598,0.0
51111.0,STARLINK-3173,PAYLOAD,2022-02-10 14:00:01,15.73232368,0.0002266,53.216,162.9456,27.3474,32.8017,3.252e-05,3.951e-05,0.0,0 STARLINK-3173,1 51111U 22005H   22041.58335648  .00003951  00000-0  32520-4 0  9993,2 51111  53.2160 162.9456 0002266  27.3474  32.8017 15.73232368  4863,6727.803000000001,91.531,351.19199999999995,348.14300000000014,0.0
51111.0,STARLINK-3173,PAYLOAD,2022-02-10 22:00:00,15.73259563,0.0002293,53.2157,161.2959,23.3427,125.7173,-0.00036469,-0.00051627,0.0,0 STARLINK-3173,1 51111U 22005H   22041.91667824 -.00051627  00000-0 -36469-3 0  9994,2 51111  53.2157 161.2959 0002293  23.3427 125.7173 15.73259563  3717,6727.725,91.53,351.1330000000001,348.048,0.0
51111.0,STARLINK-3173,PAYLOAD,2022-02-11 14:00:01,15.73284336,0.0002422,53.2162,157.9967,24.7581,302.3059,-0.00040435,-0.00057199,0.0,0 STARLINK-3173,1 51111U 22005H   22042.58334491 -.00057199  00000-0 -40435-3 0  9997,2 51111  53.2162 157.9967 0002422  24.7581 302.3059 15.73284336  5022,6727.655,91.528,351.149,347.89,0.0
51111.0,STARLINK-3173,PAYLOAD,2022-02-11 14:08:25,15.73256106,0.000221,53.2164,157.9664,33.0261,327.0897,7.8532e-05,0.00010441,0.0,0 STARLINK-3173,1 51111U 22005H   22042.58918069  .00010441  00000-0  78532-4 0  9993,2 51111  53.2164 157.9664 0002210  33.0261 327.0897 15.73256106  3915,6727.735,91.53,351.087,348.11300000000006,0.0
51111.0,STARLINK-3173,PAYLOAD,2022-02-11 22:00:01,15.73235454,0.0002377,53.2161,156.3469,18.2524,37.8464,-0.00038167,-0.00053933,0.0,0 STARLINK-3173,1 51111U 22005H   22042.91668981 -.00053933  00000-0 -38167-3 0  9999,2 51111  53.2161 156.3469 0002377  18.2524  37.8464 15.73235454  5077,6727.794,91.531,351.2580000000001,348.06,0.0
51111.0,STARLINK-3173,PAYLOAD,2022-02-12 13:00:36,15.73190091,0.0002185,53.2164,153.2502,29.2553,330.8589,-0.00011344,-0.00016505,0.0,0 STARLINK-3173,1 51111U 22005H   22043.54209064 -.00016505  00000-0 -11344-3 0  9994,2 51111  53.2164 153.2502 0002185  29.2553 330.8589 15.73190091  5177,6727.9230000000025,91.534,351.2580000000001,348.3180000000001,0.0
51111.0,STARLINK-3173,PAYLOAD,2022-02-12 22:00:00,15.73136099,0.0002477,53.2159,151.3989,15.4551,307.2446,0.00015274,0.00020812,0.0,0 STARLINK-3173,1 51111U 22005H   22043.91667824  .00020812  00000-0  15274-3 0  9997,2 51111  53.2159 151.3989 0002477  15.4551 307.2446 15.73136099  5233,6728.0769999999975,91.537,351.6090000000001,348.276,0.0
51111.0,STARLINK-3173,PAYLOAD,2022-02-13 14:00:01,15.73145435,0.0002725,53.2165,148.1006,22.3715,118.088,8.0862e-05,0.00010716,0.0,0 STARLINK-3173,1 51111U 22005H   22044.58334491  .00010716  00000-0  80862-4 0  9990,2 51111  53.2165 148.1006 0002725  22.3715 118.0880 15.73145435  3725,6728.051,91.536,351.749,348.082,0.0
51111.0,STARLINK-3173,PAYLOAD,2022-02-14 06:00:00,15.73188946,0.0002644,53.2168,144.8002,26.5545,291.6724,0.0005642,0.00079282,0.0,0 STARLINK-3173,1 51111U 22005H   22045.25001157  .00079282  00000-0  56420-3 0  9990,2 51111  53.2168 144.8002 0002644  26.5545 291.6724 15.73188946  5444,6727.927,91.534,351.571,348.01300000000015,0.0
51111.0,STARLINK-3173,PAYLOAD,2022-02-14 14:00:01,15.73232734,0.0002911,53.2165,143.1529,24.8446,22.3314,0.00032404,0.00045171,0.0,0 STARLINK-3173,1 51111U 22005H   22045.58334491  .00045171  00000-0  32404-3 0  9992,2 51111  53.2165 143.1529 0002911  24.8446  22.3314 15.73232734  3723,6727.802,91.531,351.625,347.708,0.0
51111.0,STARLINK-3173,PAYLOAD,2022-02-14 20:00:01,15.73287707,0.0002901999999999,53.2159,141.9156,21.8228,2.0685,-0.00034455,-0.00048891,0.0,0 STARLINK-3173,1 51111U 22005H   22045.83334491 -.00048891  00000-0 -34455-3 0  9992,2 51111  53.2159 141.9156 0002902  21.8228   2.0685 15.73287707  5530,6727.645,91.528,351.462,347.55800000000005,0.0
51111.0,STARLINK-3173,PAYLOAD,2022-02-15 14:00:01,15.73179924,0.0002859,53.2166,138.2045,17.0851,297.001,0.00030959,0.00043019,0.0,0 STARLINK-3173,1 51111U 22005H   22046.58334491  .00043019  00000-0  30959-3 0  9995,2 51111  53.2166 138.2045 0002859  17.0851 297.0010 15.73179924  3687,6727.9519999999975,91.534,351.741,347.894,0.0
